IRIDIUM 154             
1 43574U 18061F   26157.48725060  .00000084  00000+0  22998-4 0  9997
2 43574  86.3968  61.2803 0002041  86.5536 273.5894 14.34217679411878
IRIDIUM 163             
1 43575U 18061G   26157.46821650  .00000079  00000+0  21101-4 0  9997
2 43575  86.3961  61.2041 0002377  83.1428 277.0038 14.34220440411847
IRIDIUM 156             
1 43576U 18061H   26157.44285252  .00000269  00000+0  88853-4 0  9996
2 43576  86.3965  61.2217 0002151  80.9975 279.1464 14.34218726411838
IRIDIUM 164             
1 43577U 18061J   26157.49359217  .00000167  00000+0  52523-4 0  9997
2 43577  86.3967  61.2407 0002065  88.8157 271.3275 14.34217181411888
IRIDIUM 159             
1 43578U 18061K   26157.46188025  .00000278  00000+0  92377-4 0  9996
2 43578  86.3966  61.1908 0002322  86.7795 273.3667 14.34218815411842
IRIDIUM 180             
1 43922U 19002A   26157.53114503  .00000054  00000+0  12352-4 0  9990
2 43922  86.3973 358.0534 0002258  89.3353 270.8101 14.34218017387462
IRIDIUM 176             
1 43923U 19002B   26157.48805824  .00000831  00000+0  12786-3 0  9991
2 43923  86.6095 358.0164 0002198  90.4333 269.7136 14.72252846397673
IRIDIUM 168             
1 43924U 19002C   26157.52480295  .00000006  00000+0 -50729-5 0  9994
2 43924  86.3970 358.1331 0002070  89.7409 270.4024 14.34217402387440
IRIDIUM 173             
1 43925U 19002D   26157.51211570  .00000166  00000+0  52086-4 0  9995
2 43925  86.3973 358.0276 0002267  87.3459 272.7997 14.34217173387425
IRIDIUM 169             
1 43926U 19002E   26157.40154129  .00000314  00000+0  96092-4 0  9990
2 43926  86.4237  29.7027 0002220  70.9926 289.1513 14.38609683388671
IRIDIUM 172             
1 43927U 19002F   26157.50577495  .00000049  00000+0  10469-4 0  9996
2 43927  86.3973 358.0382 0002270  89.0197 271.1259 14.34217824387435
IRIDIUM 175             
1 43928U 19002G   26157.46270061  .00000367  00000+0  10256-3 0  9997
2 43928  86.4506 295.0049 0001173 229.5848 130.5251 14.43606781397439
IRIDIUM 171             
1 43929U 19002H   26157.48674689  .00000018  00000+0 -78675-6 0  9990
2 43929  86.3978 358.3509 0001907  86.7560 273.3854 14.34217508387423
IRIDIUM 170             
1 43930U 19002J   26157.49424446  .00000235  00000+0  33321-4 0  9994
2 43930  86.6091 358.0170 0002392  90.8567 269.2924 14.72250337397687
IRIDIUM 167             
1 43931U 19002K   26157.48040382  .00000016  00000+0 -15006-5 0  9996
2 43931  86.3974 358.0710 0001881  85.4280 274.7130 14.34217589387420
IRIDIUM 181             
1 56726U 23068S   26157.42973254  .00000380  00000+0  10690-3 0  9991
2 56726  86.4503  61.2868 0002269  89.9643 270.1818 14.43308993160887
IRIDIUM 177             
1 56727U 23068T   26157.50628122  .00001091  00000+0  14008-3 0  9999
2 56727  86.1959 333.8659 0002472  87.2823 272.8681 14.80220526164789
IRIDIUM 174             
1 56728U 23068U   26157.27797386  .00000447  00000+0  66952-4 0  9993
2 56728  86.6103 358.2530 0002535  88.2215 271.9293 14.72254834164410
IRIDIUM 178             
1 56729U 23068V   26157.15738195  .00001131  00000+0  14532-3 0  9991
2 56729  86.6546  29.9698 0002490  88.5049 271.6458 14.80248433164739
IRIDIUM 179             
1 56730U 23068W   26157.42245665  .00001091  00000+0  14019-3 0  9993
2 56730  86.6789  38.8070 0002412  87.2832 272.8666 14.80232309164776
