OBJECT_NAME,OBJECT_ID,EPOCH,MEAN_MOTION,ECCENTRICITY,INCLINATION,RA_OF_ASC_NODE,ARG_OF_PERICENTER,MEAN_ANOMALY,EPHEMERIS_TYPE,CLASSIFICATION_TYPE,NORAD_CAT_ID,ELEMENT_SET_NO,REV_AT_EPOCH,BSTAR,MEAN_MOTION_DOT,MEAN_MOTION_DDOT
IRIDIUM 154,2018-061F,2026-06-06T11:41:38.451840,14.34217679,.00020417,86.3968,61.2803,86.5536,273.5894,0,U,43574,999,41187,.22997612E-4,.84E-6,0
IRIDIUM 163,2018-061G,2026-06-06T11:14:13.905600,14.34220440,.00023771,86.3961,61.2041,83.1428,277.0038,0,U,43575,999,41184,.21100659E-4,.79E-6,0
IRIDIUM 156,2018-061H,2026-06-06T10:37:42.457728,14.34218726,.00021511,86.3965,61.2217,80.9975,279.1464,0,U,43576,999,41183,.88853332E-4,.269E-5,0
IRIDIUM 164,2018-061J,2026-06-06T11:50:46.363488,14.34217181,.00020653,86.3967,61.2407,88.8157,271.3275,0,U,43577,999,41188,.52522962E-4,.167E-5,0
IRIDIUM 159,2018-061K,2026-06-06T11:05:06.453600,14.34218815,.00023221,86.3966,61.1908,86.7795,273.3667,0,U,43578,999,41184,.92377128E-4,.278E-5,0
IRIDIUM 180,2019-002A,2026-06-06T12:44:50.930592,14.34218017,.00022587,86.3973,358.0534,89.3353,270.8101,0,U,43922,999,38746,.12352289E-4,.54E-6,0
IRIDIUM 176,2019-002B,2026-06-06T11:42:48.231936,14.72252846,.00021981,86.6095,358.0164,90.4333,269.7136,0,U,43923,999,39767,.12785678E-3,.831E-5,0
IRIDIUM 168,2019-002C,2026-06-06T12:35:42.974880,14.34217402,.00020706,86.3970,358.1331,89.7409,270.4024,0,U,43924,999,38744,-.5072902E-5,.6E-7,0
IRIDIUM 173,2019-002D,2026-06-06T12:17:26.796480,14.34217173,.00022673,86.3973,358.0276,87.3459,272.7997,0,U,43925,999,38742,.52085863E-4,.166E-5,0
IRIDIUM 169,2019-002E,2026-06-06T09:38:13.167456,14.38609683,.00022202,86.4237,29.7027,70.9926,289.1513,0,U,43926,999,38867,.9609248E-4,.314E-5,0
IRIDIUM 172,2019-002F,2026-06-06T12:08:18.955680,14.34217824,.00022707,86.3973,358.0382,89.0197,271.1259,0,U,43927,999,38743,.10468786E-4,.49E-6,0
IRIDIUM 175,2019-002G,2026-06-06T11:06:17.332704,14.43606781,.00011737,86.4506,295.0049,229.5848,130.5251,0,U,43928,999,39743,.10256056E-3,.367E-5,0
IRIDIUM 171,2019-002H,2026-06-06T11:40:54.931296,14.34217508,.00019072,86.3978,358.3509,86.7560,273.3854,0,U,43929,999,38742,-.786749E-6,.18E-6,0
IRIDIUM 170,2019-002J,2026-06-06T11:51:42.721344,14.72250337,.0002392,86.6091,358.0170,90.8567,269.2924,0,U,43930,999,39768,.33320932E-4,.235E-5,0
IRIDIUM 167,2019-002K,2026-06-06T11:31:46.890048,14.34217589,.00018814,86.3974,358.0710,85.4280,274.7130,0,U,43931,999,38742,-.150065E-5,.16E-6,0
IRIDIUM 181,2023-068S,2026-06-06T10:18:48.891456,14.43308993,.00022693,86.4503,61.2868,89.9643,270.1818,0,U,56726,999,16088,.10689608E-3,.38E-5,0
IRIDIUM 177,2023-068T,2026-06-06T12:09:02.697408,14.80220526,.00024723,86.1959,333.8659,87.2823,272.8681,0,U,56727,999,16478,.1400842E-3,.1091E-4,0
IRIDIUM 174,2023-068U,2026-06-06T06:40:16.941504,14.72254834,.00025351,86.6103,358.2530,88.2215,271.9293,0,U,56728,999,16441,.66952174E-4,.447E-5,0
IRIDIUM 178,2023-068V,2026-06-06T03:46:37.800480,14.80248433,.00024906,86.6546,29.9698,88.5049,271.6458,0,U,56729,999,16473,.14531732E-3,.1131E-4,0
IRIDIUM 179,2023-068W,2026-06-06T10:08:20.254560,14.80232309,.00024126,86.6789,38.8070,87.2832,272.8666,0,U,56730,999,16477,.14019334E-3,.1091E-4,0
